NCESSchool,SchoolName,StreetAddr,City,State,ZipCode,Zip_4,Enrollment,Telephone,Locale,LocaleDesc,MSA_Cat,SchoolType,TypeDesc,SchoolLeve,LevelDesc,LowestGrad,HighestGra
560000100047,WYOMING SCHOOL FOR THE DEAF,539 S PAYNE AVE,CASPER,WY,82609,2649,100.0,3075774686,N,Unknown,Non-MSA,2,Special Ed,4,Other,N,N
560000300534,WYOMING GIRL'S SCHOOL,P.O. BOX 868,SHERIDAN,WY,82801,868,54.0,3076747476,6,Town,Non-MSA,4,Voc/Tech/Other,3,High,07,12
560000400538,WYOMING BOY'S SCHOOLS,1550 HIGHWAY 20 S,WORLAND,WY,82401,9802,70.0,3073476144,7,Rural,Non-MSA,4,Voc/Tech/Other,3,High,07,12
560000500075,WYOMING STATE HOSPITAL,PO BOX 117,EVANSTON,WY,82931,177,100.0,3077893464,N,Unknown,Non-MSA,4,Voc/Tech/Other,4,Other,N,N
560000900145,CATHEDRAL HOME FOR CHILDREN,PO BOX 520,LARAMIE,WY,82073,520,100.0,3077458997,5,Town,Non-MSA,4,Voc/Tech/Other,4,Other,00,00
560001000156,ST. JOSEPH'S CHILDREN'S HOME,PO BOX 1117,TORRINGTON,WY,82240,1117,46.0,3075324197,6,Town,Non-MSA,4,Voc/Tech/Other,4,Other,01,12
560001100166,YOUTH EMERGENCY SERVICES EDUCA,706 E. LONGMONT,GILLETTE,WY,82716,2927,7.0,3076860669,6,Town,Non-MSA,4,Voc/Tech/Other,4,Other,05,12
560001200170,FRONTIER CORRECTIONAL SYSTEMS,PO BOX 693,CHEYENNE,WY,82003,693,56.0,3076323682,2,Central City,Within MSA,4,Voc/Tech/Other,4,Other,06,12
560073000001,LARAMIE HIGH SCHOOL,1275 NORTH 11TH,LARAMIE,WY,82072,2206,841.0,3077214420,5,Town,Non-MSA,1,Regular,3,High,10,12
560073000002,LARAMIE JUNIOR HIGH SCHOOL,1355 NORTH 22ND,LARAMIE,WY,82072,2340,787.0,3077214430,5,Town,Non-MSA,1,Regular,2,Middle,07,09
560073000003,ROCK RIVER HIGH SCHOOL,P.O. BOX 128,ROCK RIVER,WY,82083,128,60.0,3073782271,7,Rural,Non-MSA,1,Regular,3,High,09,12
560073000004,INDIAN PAINTBRUSH  ELEMENTARY,1653 N. 28TH STREET,LARAMIE,WY,82072,9200,291.0,3077214490,5,Town,Non-MSA,1,Regular,1,Primary,KG,06
560073000005,BEITEL ELEMENTARY,811 SOUTH 17TH STREET,LARAMIE,WY,82070,4215,208.0,3077214436,5,Town,Non-MSA,1,Regular,1,Primary,KG,06
560073000006,SPRING CREEK ELEMENTARY,1203 RUSSELL,LARAMIE,WY,82070,4682,287.0,3077214410,5,Town,Non-MSA,1,Regular,1,Primary,KG,06
560073000007,CENTENNIAL ELEMENTARY,P.O. BOX 326,CENTENNIAL,WY,82055,,24.0,3077459585,7,Rural,Non-MSA,1,Regular,1,Primary,KG,06
560073000011,HARMONY ELEMENTARY,"20 LEWIS ROAD, COALMONT ROUTE",LARAMIE,WY,82070,,47.0,3077455720,7,Rural,Non-MSA,1,Regular,1,Primary,KG,06
560073000014,VELMA LINFORD ELEMENTARY,120 SOUTH JOHNSON,LARAMIE,WY,82070,6458,359.0,3077214439,5,Town,Non-MSA,1,Regular,1,Primary,KG,06
560073000017,ROCK RIVER JUNIOR HIGH SCHOOL,P.O. BOX 128,ROCK RIVER,WY,82083,128,22.0,3073782271,7,Rural,Non-MSA,1,Regular,2,Middle,07,08
560073000018,RIVER BRIDGE ELEMENTARY,GARRETT ROUTE,ROCK RIVER,WY,82083,,4.0,3073782271,7,Rural,Non-MSA,1,Regular,1,Primary,KG,08
560073000020,SLADE ELEMENTARY,1212 BAKER,LARAMIE,WY,82070,,334.0,3077214446,5,Town,Non-MSA,1,Regular,1,Primary,KG,06
560073000021,TIMBER CANYON RANCH ELEMENTARY,1380 SYBILLE ROAD,WHEATLAND,WY,82201,8211,100.0,3073224715,N,Unknown,Non-MSA,1,Regular,4,Other,N,N
560073000022,THAYER ELEMENTARY,801 SOUTH 24TH STREET,LARAMIE,WY,82070,4920,223.0,3077214450,5,Town,Non-MSA,1,Regular,1,Primary,KG,06
560073000025,VALLEY VIEW ELEMENTARY,16 MANDEL LANE,LARAMIE,WY,82070,9722,9.0,3077453793,7,Rural,Non-MSA,1,Regular,1,Primary,KG,08
560073000066,WHITING HIGH SCHOOL,509 SOUTH 9TH,LARAMIE,WY,82070,,41.0,3077214449,5,Town,Non-MSA,4,Voc/Tech/Other,3,High,09,12
560073000173,SIBYLEE ELEMENTARY,3284 STATE HIGHWAY 34,WHEATLAND,WY,82201,,2.0,3073224219,7,Rural,Non-MSA,1,Regular,1,Primary,KG,08
560073000453,ROCK RIVER ELEMENTARY,P.O. BOX 128,ROCK RIVER,WY,82083,128,38.0,3073782271,7,Rural,Non-MSA,1,Regular,1,Primary,KG,06
560073000529,COZY HOLLOW ELEMENTARY,666 ALBANY COUNTY ROAD #727,ROCK RIVER,WY,82083,,3.0,3073782271,7,Rural,Non-MSA,1,Regular,1,Primary,KG,08
560073000535,UW LABORATORY SCHOOL,P.O. BOX 3374,LARAMIE,WY,82071,3374,210.0,3077662155,5,Town,Non-MSA,1,Regular,4,Other,KG,09
560096000162,ARAPAHOE ELEMENTARY,P.O. BOX 9211,ARAPAHOE,WY,82510,211,294.0,3078569333,7,Rural,Non-MSA,1,Regular,1,Primary,KG,08
560103000026,RAWLINS HIGH SCHOOL,1401 COLORADO,RAWLINS,WY,82301,4411,541.0,3073289280,6,Town,Non-MSA,4,Voc/Tech/Other,3,High,09,12
560103000028,RAWLINS MIDDLE SCHOOL,1500 HARSHMAN STREET,RAWLINS,WY,82301,4498,395.0,3073289205,6,Town,Non-MSA,1,Regular,2,Middle,06,08
560103000030,BAIROIL ELEMENTARY,P.O. BOX 27,BAIROIL,WY,82322,27,5.0,3073289215,7,Rural,Non-MSA,1,Regular,1,Primary,KG,08
560103000032,MOUNTAIN VIEW ELEMENTARY,ELEVENTH & BIRCH,RAWLINS,WY,82301,,255.0,3073289291,6,Town,Non-MSA,1,Regular,1,Primary,KG,05
560103000033,PERSHING ELEMENTARY,302 W. DAVIS STREET,RAWLINS,WY,82301,6299,155.0,3073289240,6,Town,Non-MSA,1,Regular,1,Primary,KG,05
560103000034,SINCLAIR ELEMENTARY,P.O. BOX 307,SINCLAIR,WY,82334,307,32.0,3073289293,7,Rural,Non-MSA,1,Regular,1,Primary,KG,05
560103000124,LITTLE SNAKE RIVER VALLEY SCHO,P.O. BOX 9,BAGGS,WY,82321,9,172.0,3073832185,7,Rural,Non-MSA,1,Regular,4,Other,KG,12
560103000147,COOPERATIVE SCHOOL,P.O. BOX 160,RAWLINS,WY,82301,,57.0,3073289220,6,Town,Non-MSA,4,Voc/Tech/Other,3,High,08,12
560103000408,HIGHLAND HILLS ELEMENTARY,DARNLEY & INVERNESS,RAWLINS,WY,82301,,311.0,3073289299,6,Town,Non-MSA,1,Regular,1,Primary,KG,05
560109000036,RIVERSIDE HIGH SCHOOL,P.O. BOX 151,BASIN,WY,82410,151,111.0,3075682416,7,Rural,Non-MSA,1,Regular,3,High,09,12
560109000038,LAURA IRWIN ELEMENTARY,P.O. BOX 151,BASIN,WY,82410,151,117.0,3075682488,7,Rural,Non-MSA,1,Regular,1,Primary,KG,04
560109000039,HYATTVILLE ELEMENTARY,P.O. BOX 99,HYATTVILLE,WY,82428,74,6.0,3074692350,7,Rural,Non-MSA,1,Regular,1,Primary,KG,04
560109000040,MANDERSON ELEMENTARY,P.O. BOX 97,MANDERSON,WY,82432,97,41.0,3075682846,7,Rural,Non-MSA,1,Regular,2,Middle,05,05
560109000476,CLOUD PEAK MIDDLE SCHOOL,P.O. BOX 97,MANDERSON,WY,82432,97,83.0,3075682846,7,Rural,Non-MSA,1,Regular,2,Middle,06,08
560126000041,BIG PINEY HIGH SCHOOL,650 PINEY DRIVE,BIG PINEY,WY,83113,,183.0,3072763324,7,Rural,Non-MSA,1,Regular,3,High,09,12
560126000042,BIG PINEY MIDDLE SCHOOL,510 NICHOLS STREET SOUTH,BIG PINEY,WY,83113,,170.0,3072763315,7,Rural,Non-MSA,1,Regular,2,Middle,06,08
560126000043,BIG PINEY ELEMENTARY,225 NICHOLS STREET SOUTH,BIG PINEY,WY,83113,,179.0,3072763313,7,Rural,Non-MSA,1,Regular,1,Primary,KG,05
560126000044,LA BARGE ELEMENTARY,106 PINE AVE.,LA BARGE,WY,82123,,55.0,3073862227,7,Rural,Non-MSA,1,Regular,1,Primary,KG,05
560142000046,ROCKY MOUNTAIN HIGH SCHOOL,P.O. BOX 176,BYRON,WY,82412,176,168.0,3075482723,7,Rural,Non-MSA,1,Regular,3,High,09,12
560142000049,BURLINGTON ELEMENTARY,P.O. BOX 9,BURLINGTON,WY,82411,9,171.0,3077623334,7,Rural,Non-MSA,1,Regular,1,Primary,KG,06
560142000050,BYRON ELEMENTARY,P.O. BOX 176,BYRON,WY,82412,176,64.0,3075482723,7,Rural,Non-MSA,1,Regular,1,Primary,KG,05
560142000051,COWLEY ELEMENTARY,P.O. BOX 38,COWLEY,WY,82420,38,81.0,3075482211,7,Rural,Non-MSA,1,Regular,1,Primary,KG,05
560142000052,DEAVER FRANNIE ELEMENTARY,P.O. BOX 33,FRANNIE,WY,82423,33,50.0,3076642331,7,Rural,Non-MSA,1,Regular,1,Primary,KG,05
560142000428,ROCKY MOUNTAIN MIDDLE SCHOOL,P.O. BOX 185,DEAVER,WY,82421,185,113.0,3076642252,7,Rural,Non-MSA,1,Regular,2,Middle,06,08
560142000477,BURLINGTON JUNIOR HIGH SCHOOL,109 NORTH STREET,BURLINGTON,WY,82411,,48.0,3077623334,7,Rural,Non-MSA,1,Regular,2,Middle,07,08
560142000478,BURLINGTON HIGH SCHOOL,109 NORTH STREET,BURLINGTON,WY,82411,,73.0,3077623334,7,Rural,Non-MSA,1,Regular,3,High,09,12
560146000054,LOVELL HIGH SCHOOL,502 HAMPSHIRE,LOVELL,WY,82431,1613,224.0,3075482256,7,Rural,Non-MSA,1,Regular,3,High,09,12
560146000055,LOVELL MIDDLE SCHOOL,325 W. 9TH,LOVELL,WY,82431,1500,155.0,3075486553,7,Rural,Non-MSA,1,Regular,2,Middle,06,08
560146000056,LOVELL ELEMENTARY,520 SHOSHONE,LOVELL,WY,82431,1920,324.0,3075482247,7,Rural,Non-MSA,1,Regular,1,Primary,KG,05
560147000019,PRONGHORN ELEMENTARY,3005 OAKCREST DR.,GILLETTE,WY,82718,5901,428.0,3076821676,6,Town,Non-MSA,1,Regular,1,Primary,KG,06
560147000057,CAMPBELL COUNTY HIGH SCHOOL,1000 CAMEL DRIVE,GILLETTE,WY,82716,4950,1580.0,3076827247,6,Town,Non-MSA,1,Regular,3,High,10,12
560147000058,TWIN SPRUCE JUNIOR HIGH SCHOOL,7TH & GILLETTE AVENUE,GILLETTE,WY,82716,4293,824.0,3076823144,6,Town,Non-MSA,1,Regular,2,Middle,07,09
560147000064,COTTONWOOD ELEMENTARY,P.O. BOX 330,WRIGHT,WY,82732,330,198.0,3079391381,7,Rural,Non-MSA,1,Regular,1,Primary,KG,06
560147000067,HILLCREST ELEMENTARY,800 BUTLER-SPAETH ROAD,GILLETTE,WY,82716,4612,317.0,3076827291,6,Town,Non-MSA,1,Regular,1,Primary,KG,06
560147000068,LITTLE POWDER ELEMENTARY,P.O. BOX 100,WESTON,WY,82731,100,18.0,3076822725,7,Rural,Non-MSA,1,Regular,1,Primary,KG,08
560147000069,MEADOWLARK ELEMENTARY,816 EAST 7TH,GILLETTE,WY,82716,4430,246.0,3076824740,6,Town,Non-MSA,1,Regular,1,Primary,KG,06
560147000070,LAKEVIEW ELEMENTARY,410 LAKESIDE DRIVE,GILLETTE,WY,82716,2822,310.0,3076827293,6,Town,Non-MSA,1,Regular,1,Primary,KG,06
560147000071,RAWHIDE ELEMENTARY,200 PROSPECTOR PARKWAY,GILLETTE,WY,82716,9807,130.0,3076820774,7,Rural,Non-MSA,1,Regular,1,Primary,KG,06
560147000072,RECLUSE SCHOOL,13 GREENOUGH RD,RECLUSE,WY,82725,9802,27.0,3076829612,7,Rural,Non-MSA,1,Regular,1,Primary,KG,08
560147000073,ROZET ELEMENTARY,P.O. BOX 200,ROZET,WY,82727,200,335.0,3076823133,7,Rural,Non-MSA,1,Regular,1,Primary,KG,06
560147000076,WAGONWHEEL ELEMENTARY,800 HEMLOCK,GILLETTE,WY,82716,2525,370.0,3076861060,6,Town,Non-MSA,1,Regular,1,Primary,KG,06
560147000349,STOCKTRAIL ELEMENTARY,800 STOCKTRAIL AVENUE,GILLETTE,WY,82716,4151,255.0,3076827289,6,Town,Non-MSA,1,Regular,1,Primary,KG,06
560147000409,CONESTOGA ELEMENTARY,4901 SLEEPY HOLLOW BOULEVARD,GILLETTE,WY,82718,7496,332.0,3076862373,7,Rural,Non-MSA,1,Regular,1,Primary,KG,06
560147000410,SAGE VALLEY JUNIOR HIGH SCHOOL,1000 WEST LAKEWAY ROAD,GILLETTE,WY,82718,5633,837.0,3076822225,6,Town,Non-MSA,1,Regular,2,Middle,07,09
560147000429,WRIGHT JR./SR. HIGH SCHOOL,P.O. BOX 490,WRIGHT,WY,82732,490,267.0,3074640140,7,Rural,Non-MSA,1,Regular,3,High,07,12
560147000435,PAINTBRUSH ELEMENTARY,1001 W LAKEWAY ROAD,GILLETTE,WY,82718,5632,383.0,3076861778,6,Town,Non-MSA,1,Regular,1,Primary,KG,06
560147000436,SUNFLOWER ELEMENTARY,2500 S DOGWOOD AVENUE,GILLETTE,WY,82718,5855,416.0,3076860631,6,Town,Non-MSA,1,Regular,1,Primary,KG,06
560147000454,4-J ELEMENTARY SCHOOL,2830 HIGHWAY 50A,GILLETTE,WY,82718,9805,43.0,3076823076,6,Town,Non-MSA,1,Regular,1,Primary,KG,06
560147000479,WESTWOOD HIGH SCHOOL,601 ROHAN,GILLETTE,WY,82716,4160,125.0,3076829809,6,Town,Non-MSA,4,Voc/Tech/Other,3,High,09,12
560170000078,ENCAMPMENT HIGH SCHOOL,P.O. BOX 277,ENCAMPMENT,WY,82325,277,44.0,3073275442,7,Rural,Non-MSA,1,Regular,3,High,09,12
560170000081,SARATOGA MIDDLE SCHOOL,P.O. BOX 1710,SARATOGA,WY,82331,1710,86.0,3073268351,7,Rural,Non-MSA,1,Regular,2,Middle,06,08
560170000084,ELK MOUNTAIN ELEMENTARY,P.O. BOX 100,ELK MOUNTAIN,WY,82324,100,24.0,3073487731,7,Rural,Non-MSA,1,Regular,1,Primary,KG,06
560170000085,HANNA ELEMENTARY,P.O. BOX 1000,HANNA,WY,82327,1000,100.0,3073256523,7,Rural,Non-MSA,1,Regular,1,Primary,KG,06
560170000087,MEDICINE BOW ELEMENTARY,P.O. BOX 185,MEDICINE BOW,WY,82329,185,17.0,3073792345,7,Rural,Non-MSA,1,Regular,1,Primary,KG,06
560170000088,SARATOGA ELEMENTARY,P.O. BOX 1710,SARATOGA,WY,82331,1710,130.0,3073268365,7,Rural,Non-MSA,1,Regular,1,Primary,KG,05
560170000411,H.E.M. SENIOR HIGH,P.O. BOX 810,HANNA,WY,82327,810,89.0,3073256545,7,Rural,Non-MSA,1,Regular,3,High,09,12
560170000412,SARATOGA HIGH SCHOOL,P.O. BOX 1710,SARATOGA,WY,82331,1710,127.0,3073265246,7,Rural,Non-MSA,1,Regular,3,High,09,12
560170000455,ENCAMPMENT ELEMENTARY,P.O. BOX 277,ENCAMPMENT,WY,82325,277,50.0,3073275442,7,Rural,Non-MSA,1,Regular,1,Primary,KG,06
560170000495,H.E.M. JUNIOR HIGH,P.O. BOX 810,HANNA,WY,82327,810,32.0,3073256545,7,Rural,Non-MSA,1,Regular,2,Middle,07,08
560170000496,ENCAMPMENT JUNIOR HIGH SCHOOL,P.O. BOX 277,ENCAMPMENT,WY,82325,277,25.0,3073275442,7,Rural,Non-MSA,1,Regular,2,Middle,07,08
560198000090,CENTRAL HIGH SCHOOL,5500 EDUCATION DRIVE,CHEYENNE,WY,82009,4008,1248.0,3077712680,2,Central City,Within MSA,1,Regular,3,High,10,12
560198000091,EAST HIGH SCHOOL,2800 EAST PERSHING BOULEVARD,CHEYENNE,WY,82001,5762,1587.0,3077712663,2,Central City,Within MSA,1,Regular,3,High,09,12
560198000092,TRIUMPH HIGH SCHOOL,2201 MORRIE AVENUE,CHEYENNE,WY,82001,3945,270.0,3077712500,2,Central City,Within MSA,4,Voc/Tech/Other,3,High,08,12
560198000093,CAREY JUNIOR HIGH SCHOOL,1780 EAST PERSHING BOULEVARD,CHEYENNE,WY,82001,4103,1126.0,3077712580,2,Central City,Within MSA,1,Regular,2,Middle,07,09
560198000094,JOHNSON JUNIOR HIGH SCHOOL,1236 WEST ALLISON ROAD,CHEYENNE,WY,82007,2752,857.0,3077712640,2,Central City,Within MSA,1,Regular,2,Middle,07,09
560198000095,MCCORMICK JUNIOR HIGH SCHOOL,6000 EDUCATION DR,CHEYENNE,WY,82009,3991,1119.0,3077712650,2,Central City,Within MSA,1,Regular,2,Middle,07,09
560198000096,ALTA VISTA ELEMENTARY,1514 EAST 16TH STREET,CHEYENNE,WY,82001,4999,333.0,3077712310,2,Central City,Within MSA,1,Regular,1,Primary,KG,06
560198000097,ARP ELEMENTARY,1216 REINER COURT,CHEYENNE,WY,82007,,313.0,3077712365,4,Urban Fringe,Within MSA,1,Regular,1,Primary,KG,06
560198000098,BAGGS ELEMENTARY,3705 CHEYENNE STREET,CHEYENNE,WY,82001,1880,305.0,3077712385,2,Central City,Within MSA,1,Regular,1,Primary,KG,06
560198000099,BAIN ELEMENTARY,903 ADAMS AVENUE,CHEYENNE,WY,82001,6672,379.0,3077712525,2,Central City,Within MSA,1,Regular,1,Primary,KG,06
560198000100,BUFFALO RIDGE ELEMENTARY,5331 PINERIDGE AVENUE,CHEYENNE,WY,82009,5208,302.0,3077712595,2,Central City,Within MSA,1,Regular,1,Primary,KG,06
560198000101,CHURCHILL ELEMENTARY,510 WEST 29TH STREET,CHEYENNE,WY,82001,2760,133.0,3077712410,2,Central City,Within MSA,1,Regular,1,Primary,03,06
560198000102,COLE ELEMENTARY,615 WEST 9TH STREET,CHEYENNE,WY,82007,1272,238.0,3077712480,2,Central City,Within MSA,1,Regular,1,Primary,KG,06
560198000103,CORLETT ELEMENTARY,600 WEST 22ND STREET,CHEYENNE,WY,82001,3504,144.0,3077712420,2,Central City,Within MSA,1,Regular,1,Primary,KG,03
560198000104,DAVIS ELEMENTARY,6309 YELLOWSTONE ROAD,CHEYENNE,WY,82009,3447,311.0,3077712600,2,Central City,Within MSA,1,Regular,1,Primary,KG,06
560198000105,DEMING ELEMENTARY,715 WEST 5TH AVENUE,CHEYENNE,WY,82001,1177,220.0,3077712400,2,Central City,Within MSA,1,Regular,1,Primary,KG,04
560198000106,DILDINE ELEMENTARY,4312 VAN BUREN AVENUE,CHEYENNE,WY,82001,2291,508.0,3077712320,2,Central City,Within MSA,1,Regular,1,Primary,KG,06
560198000108,FAIRVIEW ELEMENTARY,2801 EAST 10TH STREET,CHEYENNE,WY,82001,5626,205.0,3077712610,2,Central City,Within MSA,1,Regular,1,Primary,03,06
560198000109,GILCHRIST ELEMENTARY,1108 HAPPY JACK ROAD,CHEYENNE,WY,82007,9553,139.0,3077712285,8,Rural,Within MSA,1,Regular,1,Primary,KG,06
560198000110,GOINS ELEMENTARY,201 SOUTH CRIBBON AVE,CHEYENNE,WY,82007,1179,330.0,3077712620,2,Central City,Within MSA,1,Regular,1,Primary,KG,06
560198000111,HEBARD ELEMENTARY,413 SEYMOUR AVENUE,CHEYENNE,WY,82007,1519,178.0,3077712450,2,Central City,Within MSA,1,Regular,1,Primary,KG,06
560198000112,HENDERSON ELEMENTARY,2820 HENDERSON DRIVE,CHEYENNE,WY,82001,5504,333.0,3077712550,2,Central City,Within MSA,1,Regular,1,Primary,KG,06
560198000113,HOBBS ELEMENTARY,5710 SYRACUSE ROAD,CHEYENNE,WY,82009,4261,462.0,3077712560,2,Central City,Within MSA,1,Regular,1,Primary,KG,06
560198000114,CLAWSON ELEMENTARY,376 ROAD 228A,HORSE CREEK,WY,82061,,5.0,3077712291,4,Urban Fringe,Within MSA,1,Regular,1,Primary,KG,06
560198000115,JESSUP ELEMENTARY,6113 EVERS BOULEVARD,CHEYENNE,WY,82009,3257,312.0,3077712570,2,Central City,Within MSA,1,Regular,1,Primary,KG,06
560198000116,LEBHART ELEMENTARY,807 COOLIDGE STREET,CHEYENNE,WY,82001,6201,199.0,3077712614,2,Central City,Within MSA,1,Regular,1,Primary,KG,02
560198000117,MILLER ELEMENTARY,3501 EVANS AVENUE,CHEYENNE,WY,82001,1470,93.0,3077712376,2,Central City,Within MSA,1,Regular,2,Middle,05,06
560198000118,PIONEER PARK ELEMENTARY,1407 COSGRIFF COURT,CHEYENNE,WY,82001,2453,491.0,3077712316,2,Central City,Within MSA,1,Regular,1,Primary,KG,06
560198000119,ROSSMAN ELEMENTARY,916 WEST COLLEGE DRIVE,CHEYENNE,WY,82007,3364,156.0,3077712544,2,Central City,Within MSA,1,Regular,1,Primary,KG,06
560198000120,WILLADSEN ELEMENTARY,645 HARRIMAN ROAD,GRANITE CANYON,WY,82059,,8.0,3077212295,4,Urban Fringe,Within MSA,1,Regular,1,Primary,KG,06
560198000438,ANDERSON ELEMENTARY,2204 PLAIN VIEW ROAD,CHEYENNE,WY,82009,4433,429.0,3077712606,2,Central City,Within MSA,1,Regular,1,Primary,KG,06
560198000480,AFFLERBACH ELEMENTARY,400 WEST WALLICK ROAD,CHEYENNE,WY,82007,9324,539.0,3077712300,4,Urban Fringe,Within MSA,1,Regular,1,Primary,KG,06
560207000121,CODY HIGH SCHOOL,919 CODY AVENUE,CODY,WY,82414,3531,824.0,3075874251,6,Town,Non-MSA,1,Regular,3,High,09,12
560207000122,EASTSIDE ELEMENTARY,919 CODY AVENUE,CODY,WY,82414,3853,347.0,3075874275,6,Town,Non-MSA,1,Regular,1,Primary,KG,05
560207000125,WAPITI ELEMENTARY,919 CODY AVENUE,WAPITI,WY,82450,,36.0,3075873947,7,Rural,Non-MSA,1,Regular,1,Primary,KG,05
560207000126,GLENN LIVINGSTON ELEMENTARY,919 CODY AVENUE,CODY,WY,82414,4606,294.0,3075874271,6,Town,Non-MSA,1,Regular,1,Primary,KG,05
560207000351,CODY MIDDLE SCHOOL,919 CODY AVENUE,CODY,WY,82414,8400,553.0,3075874273,6,Town,Non-MSA,1,Regular,2,Middle,06,08
560207000430,VALLEY ELEMENTARY,919 CODY AVENUE,CODY,WY,82414,,3.0,3075872287,6,Town,Non-MSA,1,Regular,1,Primary,KG,08
560207000521,SUNSET ELEMENTARY,919 CODY AVENUE,CODY,WY,82414,4412,278.0,3075874279,6,Town,Non-MSA,1,Regular,1,Primary,KG,05
560214000127,DOUGLAS HIGH SCHOOL,615 HAMILTON STREET,DOUGLAS,WY,82633,2615,549.0,3073582940,6,Town,Non-MSA,1,Regular,3,High,09,12
560214000128,DOUGLAS PRIMARY SCHOOL,615 HAMILTON STREET,DOUGLAS,WY,82633,2615,331.0,3073583502,6,Town,Non-MSA,1,Regular,1,Primary,KG,02
560214000129,DRY CREEK ELEMENTARY,615 HAMILTON STREET,DOUGLAS,WY,82633,2615,5.0,3073582351,7,Rural,Non-MSA,1,Regular,1,Primary,KG,08
560214000130,MOSS AGATE ELEMENTARY,615 HAMILTON STREET,DOUGLAS,WY,82633,2615,14.0,3073583221,7,Rural,Non-MSA,1,Regular,1,Primary,KG,08
560214000132,SHAWNEE ELEMENTARY,615 HAMILTON STREET,DOUGLAS,WY,82633,2615,4.0,3073583278,7,Rural,Non-MSA,1,Regular,1,Primary,KG,08
560214000134,WAGONHOUND ELEMENTARY,615 HAMILTON STREET,DOUGLAS,WY,82633,2615,2.0,3073584903,7,Rural,Non-MSA,1,Regular,1,Primary,KG,08
560214000135,WHITE ELEMENTARY,615 HAMILTON STREET,DOUGLAS,WY,82633,2615,16.0,3073583209,7,Rural,Non-MSA,1,Regular,1,Primary,KG,08
560214000175,DOUGLAS PATHFINDER ALTERNATIVE,615 HAMILTON STREET,DOUGLAS,WY,82633,2615,100.0,3073588353,N,Unknown,Non-MSA,1,Regular,4,Other,N,N
560214000352,DOUGLAS INTERMEDIATE SCHOOL,615 HAMILTON STREET,DOUGLAS,WY,82633,2615,350.0,3073585250,6,Town,Non-MSA,1,Regular,1,Primary,03,05
560214000368,DOUGLAS MIDDLE SCHOOL,615 HAMILTON STREET,DOUGLAS,WY,82633,2615,389.0,3073589771,6,Town,Non-MSA,1,Regular,2,Middle,06,08
560214000519,NACHTMAN ELEMENTARY,615 HAMILTON STREET,DOUGLAS,WY,82633,2615,3.0,3073586431,7,Rural,Non-MSA,1,Regular,1,Primary,KG,08
560215000037,GLENROCK INTERMEDIATE SCHOOL,P.O. BOX 1300,GLENROCK,WY,82637,1300,128.0,3074369258,7,Rural,Non-MSA,1,Regular,2,Middle,05,06
560215000136,GLENROCK MIDDLE SCHOOL,P.O. BOX 1300,GLENROCK,WY,82637,1300,110.0,3074369258,7,Rural,Non-MSA,1,Regular,2,Middle,07,08
560215000137,GLENROCK HIGH SCHOOL,P.O. BOX 1300,GLENROCK,WY,82637,1300,257.0,3074369201,7,Rural,Non-MSA,1,Regular,3,High,09,12
560215000141,GRANT ELEMENTARY,P.O. BOX 1300,GLENROCK,WY,82637,1300,295.0,3074362774,7,Rural,Non-MSA,1,Regular,1,Primary,KG,04
560215000413,BOXELDER ELEMENTARY,1866 BOXELDER ROAD,GLENROCK,WY,82637,9305,2.0,3074368953,7,Rural,Non-MSA,1,Regular,1,Primary,KG,08
560237000142,HULETT HIGH SCHOOL,P.O. BOX 127,HULETT,WY,82720,127,95.0,3074675231,7,Rural,Non-MSA,1,Regular,3,High,09,12
560237000143,MOORCROFT HIGH SCHOOL,P.O. BOX 129,MOORCROFT,WY,82721,129,182.0,3077563446,7,Rural,Non-MSA,1,Regular,3,High,09,12
560237000144,SUNDANCE HIGH SCHOOL,P.O. BOX 850,SUNDANCE,WY,82729,850,135.0,3072831007,7,Rural,Non-MSA,1,Regular,3,High,09,12
560237000146,FOUR OAKS ELEMENTARY,893 OAK CREEK ROAD,ALADDIN,WY,82710,9724,100.0,3078964836,N,Unknown,Non-MSA,1,Regular,4,Other,N,N
560237000148,MOORCROFT ELEMENTARY,P.O. BOX 40,MOORCROFT,WY,82721,40,217.0,3077563781,7,Rural,Non-MSA,1,Regular,1,Primary,KG,06
560237000150,SUNDANCE ELEMENTARY,P.O. BOX 870,SUNDANCE,WY,82729,870,181.0,3072831227,7,Rural,Non-MSA,1,Regular,1,Primary,KG,06
560237000458,HULETT ELEMENTARY,P.O. BOX 127,HULETT,WY,82720,127,136.0,3074675231,7,Rural,Non-MSA,1,Regular,1,Primary,KG,06
560237000459,HULETT JUNIOR HIGH SCHOOL,P.O. BOX 127,HULETT,WY,82720,127,42.0,3074675231,7,Rural,Non-MSA,1,Regular,2,Middle,07,08
560237000460,MOORCROFT JUNIOR HIGH SCHOOL,P.O. BOX 129,MOORCROFT,WY,82721,129,63.0,3077563446,7,Rural,Non-MSA,1,Regular,2,Middle,07,08
560237000461,SUNDANCE JUNIOR HIGH SCHOOL,P.O. BOX 850,SUNDANCE,WY,82729,850,71.0,3072831007,7,Rural,Non-MSA,1,Regular,2,Middle,07,08
560237000530,BEAR LODGE HIGH SCHOOL,P.O. BOX 710,SUNDANCE,WY,82729,710,20.0,3072832144,7,Rural,Non-MSA,4,Voc/Tech/Other,3,High,08,12
560267000151,DUBOIS HIGH SCHOOL,P.O. BOX 188,DUBOIS,WY,82513,188,109.0,3074552279,7,Rural,Non-MSA,1,Regular,3,High,09,12
560267000432,DUBOIS ELEMENTARY/MIDDLE SCHOO,P.O. BOX 188,DUBOIS,WY,82513,188,177.0,3074552488,7,Rural,Non-MSA,1,Regular,1,Primary,KG,08
560276000152,EVANSTON HIGH SCHOOL,P.O. BOX 6002,EVANSTON,WY,82931,6002,1011.0,3077890757,6,Town,Non-MSA,1,Regular,3,High,09,12
560276000153,DAVIS MIDDLE SCHOOL,P.O. BOX 6002,EVANSTON,WY,82931,6002,409.0,3077898096,6,Town,Non-MSA,1,Regular,2,Middle,06,08
560276000155,CLARK ELEMENTARY,P.O. BOX 6002,EVANSTON,WY,82931,6002,307.0,3077892833,6,Town,Non-MSA,1,Regular,1,Primary,KG,05
560276000414,UINTA MEADOWS ELEMENTARY,P.O. BOX 6002,EVANSTON,WY,82931,6002,406.0,3077898098,6,Town,Non-MSA,1,Regular,1,Primary,KG,05
560276000433,NORTH EVANSTON ELEMENTARY,P.O. BOX 6002,EVANSTON,WY,82931,6002,336.0,3077897658,6,Town,Non-MSA,1,Regular,1,Primary,KG,05
560276000462,ASPEN ELEMENTARY,P.O. BOX 6002,EVANSTON,WY,82931,6002,330.0,3077893106,6,Town,Non-MSA,1,Regular,1,Primary,KG,05
560276000463,EVANSTON MIDDLE SCHOOL,P.O. BOX 6002,EVANSTON,WY,82931,6002,363.0,3077895499,6,Town,Non-MSA,1,Regular,2,Middle,06,08
560282000370,FT WASHAKIE MIDDLE SCHOOL,90 ETHETE ROAD,FT WASHAKIE,WY,82514,9602,43.0,3073322380,7,Rural,Non-MSA,1,Regular,2,Middle,07,08
560282000498,FT WASHAKIE ELEMENTARY,90 ETHETE ROAD,FT WASHAKIE,WY,82514,9602,238.0,3073322380,7,Rural,Non-MSA,1,Regular,1,Primary,KG,06
560283000158,WIND RIVER SECONDARY SCHOOL,P.O. BOX 10,PAVILLION,WY,82523,10,243.0,3078566327,7,Rural,Non-MSA,1,Regular,4,Other,06,12
560283000159,CROWHEART ELEMENTARY,"HC 31, PO BOX 2",CROWHEART,WY,82512,9801,6.0,3078566372,7,Rural,Non-MSA,1,Regular,1,Primary,KG,05
560283000160,WIND RIVER ELEMENTARY,P.O. BOX 10,PAVILLION,WY,82523,10,145.0,3078566372,7,Rural,Non-MSA,1,Regular,1,Primary,KG,05
560287000074,JEFFREY CITY ELEMENTARY,P.O. BOX 130,JEFFREY CITY,WY,82310,,8.0,3075442254,7,Rural,Non-MSA,1,Regular,1,Primary,KG,06
560287000154,PATHFINDER LEARNING CENTER,P.O. BOX 1223,LANDER,WY,82520,,47.0,3073357050,6,Town,Non-MSA,4,Voc/Tech/Other,3,High,08,12
560287000163,LANDER VALLEY HIGH SCHOOL,1005 WEST MAIN STREET,LANDER,WY,82520,2699,740.0,3073324433,7,Rural,Non-MSA,1,Regular,3,High,09,12
560287000198,STARRETT JUNIOR HIGH SCHOOL,863 SWEETWATER STREET,LANDER,WY,82520,3048,292.0,3073324040,6,Town,Non-MSA,1,Regular,2,Middle,07,08
560287000199,NORTH ELEMENTARY,626 WASHINGTON,LANDER,WY,82520,2137,274.0,3073325943,6,Town,Non-MSA,1,Regular,1,Primary,KG,06
560287000200,SOUTH ELEMENTARY,615 POPO AGIE,LANDER,WY,82520,3201,292.0,3073326690,6,Town,Non-MSA,1,Regular,1,Primary,KG,06
560287000416,WEST ELEMENTARY,350 SMITH STREET,LANDER,WY,82520,2645,280.0,3073326967,6,Town,Non-MSA,1,Regular,1,Primary,KG,06
560299000167,LINGLE-FT LARAMIE HIGH SCHOOL,P.O. BOX 379,LINGLE,WY,82223,379,96.0,3078372296,7,Rural,Non-MSA,1,Regular,3,High,09,12
560299000168,TORRINGTON HIGH SCHOOL,24TH & WEST C STREET,TORRINGTON,WY,82240,,445.0,3075327101,6,Town,Non-MSA,1,Regular,3,High,09,12
560299000169,TORRINGTON MIDDLE SCHOOL,626 WEST 25TH,TORRINGTON,WY,82240,1899,357.0,3075327014,6,Town,Non-MSA,1,Regular,2,Middle,06,08
560299000171,SOUTHEAST ELEMENTARY,P.O. BOX 160,YODER,WY,82244,97,108.0,3075323679,7,Rural,Non-MSA,1,Regular,1,Primary,KG,05
560299000172,LINGLE-FT. LARAMIE ELEMENTARY,P.O. BOX 379,LINGLE,WY,82223,379,128.0,3078372254,7,Rural,Non-MSA,1,Regular,1,Primary,KG,05
560299000373,LINGLE-FT. LARAMIE MIDDLE SCHO,P.O. BOX 126,FT. LARAMIE,WY,82212,126,75.0,3078372283,7,Rural,Non-MSA,1,Regular,2,Middle,06,08
560299000464,LINCOLN ELEMENTARY,436 EAST 22ND AVENUE,TORRINGTON,WY,82240,2451,252.0,3075324003,6,Town,Non-MSA,1,Regular,1,Primary,KG,02
560299000465,PRAIRIE CENTER SCHOOL,NORTH STAR ROUTE,TORRINGTON,WY,82240,,7.0,3075327030,6,Town,Non-MSA,1,Regular,1,Primary,KG,05
560299000475,LA GRANGE ELEMENTARY,EDUCATIONAL DRIVE,LA GRANGE,WY,82221,,23.0,3078342311,7,Rural,Non-MSA,1,Regular,1,Primary,KG,06
560299000482,SOUTHEAST MIDDLE SCHOOL,P.O. BOX 160,YODER,WY,82244,97,72.0,3075327176,7,Rural,Non-MSA,1,Regular,2,Middle,06,08
560299000483,SOUTHEAST HIGH SCHOOL,P.O. BOX 160,YODER,WY,82244,97,101.0,3075327176,7,Rural,Non-MSA,1,Regular,3,High,09,12
560299000488,TRAIL ELEMENTARY,1601 EAST M STREET,TORRINGTON,WY,82240,3509,289.0,3075325429,6,Town,Non-MSA,1,Regular,1,Primary,03,05
560317000174,GREYBULL HIGH SCHOOL,600 NORTH 6TH STREET,GREYBULL,WY,82426,1826,169.0,3077652537,7,Rural,Non-MSA,1,Regular,3,High,09,12
560317000176,GREYBULL ELEMENTARY,413 3RD AVENUE NORTH,GREYBULL,WY,82426,1911,209.0,3077652311,7,Rural,Non-MSA,1,Regular,1,Primary,KG,05
560317000378,GREYBULL MIDDLE SCHOOL,640 8TH AVENUE NORTH,GREYBULL,WY,82426,1738,113.0,3077654492,7,Rural,Non-MSA,1,Regular,2,Middle,06,08
560318000179,GUERNSEY-SUNRISE ELEMENTARY,P.O. BOX 189,GUERNSEY,WY,82214,189,127.0,3078362733,7,Rural,Non-MSA,1,Regular,1,Primary,KG,06
560318000379,GUERNSEY-SUNRISE HIGH SCHOOL,P.O. BOX 189,GUERNSEY,WY,82214,189,85.0,3078362745,7,Rural,Non-MSA,1,Regular,3,High,09,12
560318000499,GUERNSEY-SUNRISE JUNIOR HIGH,P.O. BOX 189,GUERNSEY,WY,82214,189,44.0,3078362745,7,Rural,Non-MSA,1,Regular,2,Middle,07,08
560331000180,HOT SPRINGS COUNTY HIGH SCHOOL,415 SPRINGVIEW,THERMOPOLIS,WY,82443,2244,271.0,3078646511,6,Town,Non-MSA,1,Regular,3,High,09,12
560331000181,THERMOPOLIS MIDDLE SCHOOL,415 SPRINGVIEW,THERMOPOLIS,WY,82443,2244,177.0,3078646551,6,Town,Non-MSA,1,Regular,2,Middle,06,08
560331000184,LUCERNE ELEMENTARY,415 SPRINGVIEW,THERMOPOLIS,WY,82443,2244,106.0,3078642356,6,Town,Non-MSA,1,Regular,2,Middle,04,05
560331000185,RALPH WITTERS ELEMENTARY,415 SPRINGVIEW,THERMOPOLIS,WY,82443,2244,198.0,3078646561,6,Town,Non-MSA,1,Regular,1,Primary,KG,03
560377000178,THE LEARNING CENTER,300 S SPRUCE,BUFFALO,WY,82834,,100.0,3076841728,N,Unknown,Non-MSA,4,Voc/Tech/Other,4,Other,N,N
560377000187,BUFFALO HIGH SCHOOL,326 SOUTH BURRITT,BUFFALO,WY,82834,2139,351.0,3076842269,6,Town,Non-MSA,1,Regular,3,High,09,12
560377000188,KAYCEE HIGH SCHOOL,P.O. BOX 6,KAYCEE,WY,82639,6,63.0,3077382323,7,Rural,Non-MSA,1,Regular,3,High,09,12
560377000190,BILLY CREEK ELEMENTARY,90 BILLY CREEK ROAD,BUFFALO,WY,82834,9605,9.0,3076842685,7,Rural,Non-MSA,1,Regular,1,Primary,KG,04
560377000191,CLEAR CREEK MIDDLE SCHOOL,58 NORTH ADAMS AVENUE,BUFFALO,WY,82834,1809,272.0,3076845594,6,Town,Non-MSA,1,Regular,2,Middle,06,08
560377000192,KAYCEE ELEMENTARY,P.O. BOX 47,KAYCEE,WY,82639,47,89.0,3077382573,7,Rural,Non-MSA,1,Regular,1,Primary,KG,06
560377000380,MEADOWLARK ELEMENTARY,550 SOUTH BURRITT AVENUE,BUFFALO,WY,82834,2149,367.0,3076849518,6,Town,Non-MSA,1,Regular,1,Primary,KG,04
560377000417,CLEAR CREEK ELEMENTARY,58 NORTH ADAMS AVENUE,BUFFALO,WY,82834,1809,80.0,3076845594,6,Town,Non-MSA,1,Regular,2,Middle,05,05
560377000501,KAYCEE JUNIOR HIGH SCHOOL,P.O. BOX 6,KAYCEE,WY,82639,6,26.0,3077382323,7,Rural,Non-MSA,1,Regular,2,Middle,07,08
560403000195,KEMMERER HIGH SCHOOL,P.O. BOX 335,DIAMONDVILLE,WY,83116,335,248.0,3078776991,6,Town,Non-MSA,1,Regular,3,High,09,12
560403000197,KEMMERER ELEMENTARY,P.O. BOX 335,DIAMONDVILLE,WY,83116,335,162.0,3078775584,6,Town,Non-MSA,1,Regular,1,Primary,03,05
560403000434,BURGOON ELEMENTARY,P.O. BOX 335,DIAMONDVILLE,WY,83116,335,137.0,3078776941,7,Rural,Non-MSA,1,Regular,1,Primary,KG,02
560403000502,KEMMERER MIDDLE SCHOOL,P.O. BOX 335,DIAMONDVILLE,WY,83116,335,177.0,3078772286,6,Town,Non-MSA,1,Regular,2,Middle,06,08
560406000193,SWIFT CREEK LEARNING CENTER,P.O. BOX 219,AFTON,WY,83110,,24.0,M,7,Rural,Non-MSA,4,Voc/Tech/Other,3,High,09,12
560406000202,STAR VALLEY HIGH SCHOOL,P.O. BOX 8000,AFTON,WY,83110,,707.0,3078857847,7,Rural,Non-MSA,1,Regular,3,High,09,12
560406000203,STAR VALLEY JUNIOR HIGH SCHOOL,P.O. BOX 8001,AFTON,WY,83110,9737,367.0,3078855208,7,Rural,Non-MSA,1,Regular,2,Middle,07,08
560406000204,AFTON ELEMENTARY,P.O. BOX 8002,AFTON,WY,83110,2,365.0,3078858002,7,Rural,Non-MSA,1,Regular,1,Primary,KG,03
560406000205,COKEVILLE ELEMENTARY,P.O. BOX 400,COKEVILLE,WY,83114,400,81.0,3072793233,7,Rural,Non-MSA,1,Regular,1,Primary,KG,05
560406000206,HOLDAWAY ELEMENTARY,P.O. BOX 520,THAYNE,WY,83127,,229.0,3078832380,7,Rural,Non-MSA,1,Regular,1,Primary,KG,03
560406000207,METCALF ELEMENTARY,P.O. BOX 5068,ETNA,WY,83118,68,188.0,3078832472,7,Rural,Non-MSA,1,Regular,2,Middle,04,06
560406000381,COKEVILLE HIGH SCHOOL,P.O. BOX 220,COKEVILLE,WY,83114,,121.0,3072793273,7,Rural,Non-MSA,1,Regular,4,Other,06,12
560406000404,OSMOND ELEMENTARY,3120 STATE HIGHWAY 241,AFTON,WY,83110,9763,304.0,3078869457,7,Rural,Non-MSA,1,Regular,2,Middle,04,06
560412000208,ALBIN ELEMENTARY,P.O. BOX 38,ALBIN,WY,82050,38,63.0,3072463362,8,Rural,Within MSA,1,Regular,1,Primary,KG,06
560412000209,BURNS JR/SR HIGH SCHOOL,P.O. BOX 160,BURNS,WY,82053,160,233.0,3075473581,8,Rural,Within MSA,1,Regular,3,High,07,12
560412000210,PINE BLUFFS JR/SR HIGH SCHOOL,P.O. BOX 520,PINE BLUFFS,WY,82082,520,173.0,3072453133,8,Rural,Within MSA,1,Regular,3,High,07,12
560412000211,CARPENTER ELEMENTARY,P.O. BOX L,CARPENTER,WY,82054,368,76.0,3076492416,8,Rural,Within MSA,1,Regular,1,Primary,KG,06
560412000213,PINE BLUFFS ELEMENTARY,P.O. BOX 430,PINE BLUFFS,WY,82082,430,179.0,3072453634,8,Rural,Within MSA,1,Regular,1,Primary,KG,06
560412000485,ALBIN JR/SR HIGH SCHOOL,P.O. BOX 38,ALBIN,WY,82050,38,54.0,3072463362,8,Rural,Within MSA,1,Regular,3,High,07,12
560412000504,WEST ELEMENTARY,P.O. BOX 10,BURNS,WY,82053,10,149.0,3075473468,8,Rural,Within MSA,1,Regular,1,Primary,KG,06
560423000214,NIOBRARA COUNTY HIGH SCHOOL,P.O. BOX 1050,LUSK,WY,82225,1050,148.0,3073343320,7,Rural,Non-MSA,1,Regular,3,High,09,12
560423000215,LUSK MIDDLE SCHOOL,P.O. BOX 1239,LUSK,WY,82225,1239,97.0,3073342224,7,Rural,Non-MSA,1,Regular,2,Middle,06,08
560423000218,LANCE CREEK ELEMENTARY,P.O. BOX 334,LANCE CREEK,WY,82222,334,5.0,3073343403,7,Rural,Non-MSA,1,Regular,1,Primary,KG,08
560423000219,LUSK ELEMENTARY,P.O. BOX 1239,LUSK,WY,82225,1239,172.0,3073342224,7,Rural,Non-MSA,1,Regular,1,Primary,KG,05
560426000222,LYMAN HIGH SCHOOL,P.O. BOX 1090,LYMAN,WY,82937,1090,282.0,3077876197,7,Rural,Non-MSA,1,Regular,3,High,09,12
560426000223,LYMAN ELEMENTARY,P.O. BOX 1090,LYMAN,WY,82937,1090,99.0,3077862771,7,Rural,Non-MSA,1,Regular,2,Middle,04,05
560426000357,LYMAN MIDDLE SCHOOL,P.O. BOX 1090,LYMAN,WY,82937,1090,174.0,3077864608,7,Rural,Non-MSA,1,Regular,2,Middle,06,08
560426000418,URIE ELEMENTARY,P.O. BOX 1090,LYMAN,WY,82937,1090,229.0,3077826429,7,Rural,Non-MSA,1,Regular,1,Primary,KG,03
560438000139,MEETEETSE SCHOOL,P.O. BOX 218,MEETEETSE,WY,82433,218,154.0,3078682501,7,Rural,Non-MSA,1,Regular,4,Other,KG,12
560445000226,WYOMING INDIAN ELEMENTARY,638 BLUE SKY HIGHWAY,ETHETE,WY,82520,3040,305.0,3073322053,7,Rural,Non-MSA,1,Regular,1,Primary,KG,05
560445000386,WYOMING INDIAN MIDDLE SCHOOL,638 BLUE SKY HIGHWAY,ETHETE,WY,82520,340,167.0,3073322992,7,Rural,Non-MSA,1,Regular,2,Middle,06,08
560445000441,WYOMING INDIAN HIGH SCHOOL,636 BLUE SKY HIGHWAY,ETHETE,WY,82520,340,167.0,3073329765,7,Rural,Non-MSA,1,Regular,3,High,09,12
560450000227,MOUNTAIN VIEW HIGH SCHOOL,P.O. BOX 130,MOUNTAIN VIEW,WY,82939,130,261.0,3077826340,7,Rural,Non-MSA,1,Regular,3,High,09,12
560450000228,MOUNTAIN VIEW ELEMENTARY,P.O. BOX 130,MOUNTAIN VIEW,WY,82939,130,147.0,3077826202,7,Rural,Non-MSA,1,Regular,1,Primary,KG,02
560450000388,MOUNTAIN VIEW MIDDLE SCHOOL,P.O. BOX 130,MOUNTAIN VIEW,WY,82939,130,160.0,3077826338,7,Rural,Non-MSA,1,Regular,2,Middle,06,08
560450000442,FORT BRIDGER ELEMENTARY,P.O. BOX 130,MOUNTAIN VIEW,WY,82939,130,124.0,3077823422,7,Rural,Non-MSA,1,Regular,1,Primary,03,05
560451000133,MIDWEST SCHOOL,P.O. BOX 368,MIDWEST,WY,82643,368,143.0,3074376545,8,Rural,Within MSA,1,Regular,4,Other,KG,12
560451000157,WILLOW CREEK ELEMENTARY,24135 W. WILLOW CREEK RD.,KAYCEE,WY,82639,,2.0,3077382542,8,Rural,Within MSA,1,Regular,1,Primary,KG,06
560451000183,CASPER CLASSICAL ACADEMY,970 N. GLENN ROAD,CASPER,WY,82604,6305,103.0,3072616181,2,Central City,Within MSA,1,Regular,2,Middle,07,09
560451000229,KELLY WALSH HIGH SCHOOL,3500 EAST 12TH,CASPER,WY,82609,3125,1110.0,3075774640,2,Central City,Within MSA,1,Regular,3,High,10,12
560451000231,NATRONA COUNTY HIGH SCHOOL,930 SOUTH ELM,CASPER,WY,82601,3603,1521.0,3075570330,2,Central City,Within MSA,1,Regular,3,High,10,12
560451000232,C Y JUNIOR HIGH SCHOOL,2211 ESSEX,CASPER,WY,82604,3144,704.0,3075774474,2,Central City,Within MSA,1,Regular,2,Middle,07,09
560451000233,DEAN MORGAN JUNIOR HIGH SCHOOL,1440 SOUTH ELM,CASPER,WY,82601,4118,875.0,3075774440,2,Central City,Within MSA,1,Regular,2,Middle,07,09
560451000234,EAST JUNIOR HIGH SCHOOL,900 SOUTH BEVERLY STREET,CASPER,WY,82609,2862,409.0,3075774400,2,Central City,Within MSA,1,Regular,2,Middle,07,09
560451000235,ALCOVA ELEMENTARY,P.O. BOX 106,ALCOVA,WY,82620,106,13.0,3074722079,4,Urban Fringe,Within MSA,1,Regular,1,Primary,KG,06
560451000236,CREST HILL ELEMENTARY,4445 SOUTH POPLAR,CASPER,WY,82601,6108,398.0,3075774512,2,Central City,Within MSA,1,Regular,1,Primary,KG,06
560451000237,EVANSVILLE ELEMENTARY,P.O. BOX E,EVANSVILLE,WY,82636,766,270.0,3075774518,4,Urban Fringe,Within MSA,1,Regular,1,Primary,KG,06
560451000238,FAIRDALE ELEMENTARY,1400 SOUTH FAIRDALE AVENUE,CASPER,WY,82601,4068,185.0,3075774527,2,Central City,Within MSA,1,Regular,1,Primary,KG,06
560451000240,FT CASPAR ACADEMY,2000 CASPER AVENUE,CASPER,WY,82604,6305,396.0,3075774531,2,Central City,Within MSA,1,Regular,1,Primary,KG,06
560451000241,GARFIELD ELEMENTARY,1927 SOUTH WALNUT,CASPER,WY,82601,4545,143.0,3075774535,2,Central City,Within MSA,1,Regular,1,Primary,KG,06
560451000242,GRANT ELEMENTARY,1536 OAKCREST AVENUE,CASPER,WY,82601,4444,196.0,3075774538,2,Central City,Within MSA,1,Regular,1,Primary,KG,06
560451000244,JEFFERSON ELEMENTARY,522 SOUTH JEFFERSON,CASPER,WY,82601,3231,140.0,3075774542,2,Central City,Within MSA,1,Regular,1,Primary,KG,06
560451000245,MANOR HEIGHTS ELEMENTARY,3201 EAST 15TH STREET,CASPER,WY,82609,3002,284.0,3075774545,2,Central City,Within MSA,1,Regular,1,Primary,KG,06
560451000246,MCKINLEY ELEMENTARY,1217 WEST 14TH,CASPER,WY,82604,3362,219.0,3075774553,2,Central City,Within MSA,1,Regular,1,Primary,KG,06
560451000247,MILLS ELEMENTARY,P.O. BOX 268,MILLS,WY,82644,268,192.0,3075774558,4,Urban Fringe,Within MSA,1,Regular,1,Primary,KG,06
560451000248,MOUNTAIN VIEW ELEMENTARY,400 NORTH THIRD,CASPER,WY,82604,2478,240.0,3075774565,4,Urban Fringe,Within MSA,1,Regular,1,Primary,KG,06
560451000249,NORTH CASPER ELEMENTARY,1014 GLENARM,CASPER,WY,82601,1200,140.0,3075774575,2,Central City,Within MSA,1,Regular,1,Primary,KG,06
560451000250,PARADISE VALLEY ELEMENTARY,22 MAGNOLIA,CASPER,WY,82604,4037,390.0,3075774584,2,Central City,Within MSA,1,Regular,1,Primary,KG,06
560451000251,PARK ELEMENTARY,140 WEST 9TH,CASPER,WY,82601,3774,293.0,3075774593,2,Central City,Within MSA,1,Regular,1,Primary,KG,06
560451000252,PINEVIEW ELEMENTARY,639 PAYNE AVENUE,CASPER,WY,82609,2647,231.0,3075776700,2,Central City,Within MSA,1,Regular,1,Primary,KG,06
560451000253,POISON SPIDER ELEMENTARY,6150 RADERVILLE ROUTE,CASPER,WY,82604,9502,176.0,3075774555,2,Central City,Within MSA,1,Regular,1,Primary,KG,08
560451000254,POWDER RIVER ELEMENTARY,P.O. BOX 76,POWDER RIVER,WY,82648,76,9.0,3074723939,4,Urban Fringe,Within MSA,1,Regular,1,Primary,KG,06
560451000256,ROOSEVELT HIGH SCHOOL,140 EAST K STREET,CASPER,WY,82601,1011,259.0,3075774630,2,Central City,Within MSA,1,Regular,3,High,07,12
560451000257,SOUTHRIDGE ELEMENTARY,1600 WEST 29TH,CASPER,WY,82604,4767,266.0,3075776710,2,Central City,Within MSA,1,Regular,1,Primary,KG,06
560451000258,UNIVERSITY PARK ELEMENTARY,600 NORTH HUBER DRIVE,CASPER,WY,82609,1827,242.0,3075776715,2,Central City,Within MSA,1,Regular,1,Primary,KG,06
560451000259,WESTWOOD ELEMENTARY,2300 BELLAIRE DRIVE,CASPER,WY,82604,3242,157.0,3075776735,2,Central City,Within MSA,1,Regular,1,Primary,KG,06
560451000260,WILLARD ELEMENTARY,129 NORTH ELK,CASPER,WY,82601,2715,156.0,3075776740,2,Central City,Within MSA,1,Regular,1,Primary,KG,06
560451000262,WOODS LEARNING CENTER,500 SOUTH WALSH,CASPER,WY,82609,2381,151.0,3075770315,2,Central City,Within MSA,1,Regular,1,Primary,KG,08
560451000389,VERDA JAMES ELEMENTARY,701 CARRIAGE LANE,CASPER,WY,82609,2433,457.0,3075776727,2,Central City,Within MSA,1,Regular,1,Primary,KG,06
560451000420,OREGON TRAIL ELEMENTARY,6332 BUCKBOARD ROAD,CASPER,WY,82604,5402,322.0,3075774578,2,Central City,Within MSA,1,Regular,1,Primary,KG,06
560451000444,SAGEWOOD ELEMENTARY,2451 SHATTUCK STREET,CASPER,WY,82601,5059,279.0,3075774500,2,Central City,Within MSA,1,Regular,1,Primary,KG,06
560451000445,BAR NUNN ELEMENTARY,100 SIEBKE DRIVE,CASPER,WY,82601,9477,156.0,3075774507,2,Central City,Within MSA,1,Regular,1,Primary,KG,06
560451000469,RED CREEK ELEMENTARY,5818 BATES CREEK ROUTE,CASPER,WY,82604,9604,6.0,3074731224,2,Central City,Within MSA,1,Regular,1,Primary,KG,06
560451000470,CENTENNIAL JUNIOR HIGH SCHOOL,1421 SOUTH WATERFORD,CASPER,WY,82609,4401,602.0,3075774600,2,Central City,Within MSA,1,Regular,2,Middle,07,09
560483000015,GERTRUDE BURNS EARLY CHILDHOOD,116 CASPER AVE,NEWCASTLE,WY,82701,2705,158.0,3077462718,6,Town,Non-MSA,1,Regular,1,Primary,KG,02
560483000263,NEWCASTLE HIGH SCHOOL,116 CASPER AVE,NEWCASTLE,WY,82701,2705,318.0,3077462713,6,Town,Non-MSA,1,Regular,3,High,09,12
560483000264,NEWCASTLE MIDDLE SCHOOL,116 CASPER AVENUE,NEWCASTLE,WY,82701,2705,203.0,3077462746,6,Town,Non-MSA,1,Regular,2,Middle,06,08
560483000265,GERTRUDE BURNS INTERMEDIATE,116 CASPER AVE,NEWCASTLE,WY,82701,2705,165.0,3077462717,6,Town,Non-MSA,1,Regular,1,Primary,03,05
560483000266,KITTY MOATS ELEMENTARY,116 CASPER AVE,NEWCASTLE,WY,82701,2705,25.0,3074652253,7,Rural,Non-MSA,1,Regular,1,Primary,KG,08
560486000267,PINEDALE HIGH SCHOOL,P.O. BOX 549,PINEDALE,WY,82941,551,193.0,3073672137,7,Rural,Non-MSA,1,Regular,3,High,09,12
560486000268,PINEDALE MIDDLE SCHOOL,P.O. BOX 549,PINEDALE,WY,82941,550,154.0,3073672821,7,Rural,Non-MSA,1,Regular,2,Middle,06,08
560486000269,BONDURANT ELEMENTARY,P.O. BOX 103,BONDURANT,WY,82922,103,11.0,3077333524,7,Rural,Non-MSA,1,Regular,1,Primary,KG,05
560486000270,PINEDALE ELEMENTARY,P.O. BOX 549,PINEDALE,WY,82941,549,272.0,3073672828,7,Rural,Non-MSA,1,Regular,1,Primary,KG,05
560509000271,CHUGWATER ELEMENTARY,P.O. BOX 68,CHUGWATER,WY,82210,68,53.0,3074223501,7,Rural,Non-MSA,1,Regular,1,Primary,KG,06
560509000272,GLENDO ELEMENTARY,P.O. BOX 68,GLENDO,WY,82213,68,40.0,3077354471,7,Rural,Non-MSA,1,Regular,1,Primary,KG,06
560509000273,WHEATLAND HIGH SCHOOL,1350 OAK STREET,WHEATLAND,WY,82201,,345.0,3073222075,6,Town,Non-MSA,1,Regular,3,High,09,12
560509000274,WHEATLAND JUNIOR HIGH SCHOOL,1350 OAK STREET,WHEATLAND,WY,82201,,185.0,3073222433,6,Town,Non-MSA,1,Regular,2,Middle,07,08
560509000275,LIBBEY ELEMENTARY,1350 OAK STREET,WHEATLAND,WY,82201,,231.0,3073223836,6,Town,Non-MSA,1,Regular,1,Primary,KG,03
560509000277,WEST ELEMENTARY,1350 OAK STREET,WHEATLAND,WY,82201,,340.0,3073224180,6,Town,Non-MSA,1,Regular,1,Primary,KG,06
560509000391,CHUGWATER HIGH SCHOOL,P.O. BOX 68,CHUGWATER,WY,82210,68,51.0,3074223501,7,Rural,Non-MSA,1,Regular,3,High,09,12
560509000392,GLENDO HIGH SCHOOL,P.O. BOX 68,GLENDO,WY,82213,68,33.0,3077354471,7,Rural,Non-MSA,1,Regular,3,High,09,12
560509000509,CHUGWATER JUNIOR HIGH SCHOOL,P.O. BOX 68,CHUGWATER,WY,82210,68,22.0,3074223501,7,Rural,Non-MSA,1,Regular,2,Middle,07,08
560509000533,GLENDO JUNIOR HIGH SCHOOL,P.O. BOX 68,GLENDO,WY,82213,68,15.0,3077354471,7,Rural,Non-MSA,1,Regular,2,Middle,07,08
560516000196,SHOSHONE LEARNING CENTER,160 NORTH EVARTS,POWELL,WY,82435,2730,71.0,3077540901,6,Town,Non-MSA,4,Voc/Tech/Other,3,High,09,12
560516000278,POWELL HIGH SCHOOL,160 NORTH EVARTS,POWELL,WY,82435,2730,537.0,3077542287,6,Town,Non-MSA,1,Regular,3,High,09,12
560516000279,POWELL MIDDLE SCHOOL,160 NORTH EVARTS,POWELL,WY,82435,2730,411.0,3077545716,6,Town,Non-MSA,1,Regular,2,Middle,06,08
560516000280,CLARK ELEMENTARY,160 NORTH EVARTS,POWELL,WY,82435,2730,21.0,3076453241,7,Rural,Non-MSA,1,Regular,1,Primary,KG,05
560516000281,PARKSIDE ELEMENTARY,160 NORTH EVARTS,POWELL,WY,82435,2730,250.0,3077545187,6,Town,Non-MSA,1,Regular,1,Primary,KG,05
560516000282,SOUTHSIDE ELEMENTARY,160 NORTH EVARTS,POWELL,WY,82435,2730,217.0,3077545189,6,Town,Non-MSA,1,Regular,1,Primary,KG,05
560516000283,WESTSIDE ELEMENTARY,160 NORTH EVARTS,POWELL,WY,82435,2730,230.0,3077545181,6,Town,Non-MSA,1,Regular,1,Primary,KG,05
560522000286,RIVERTON HIGH SCHOOL,121 NORTH 5TH STREET WEST,RIVERTON,WY,82501,3453,832.0,3078569491,6,Town,Non-MSA,1,Regular,3,High,09,12
560522000287,RIVERTON MIDDLE SCHOOL,121 NORTH 5TH STREET WEST,RIVERTON,WY,82501,3453,580.0,3078569443,6,Town,Non-MSA,1,Regular,2,Middle,06,08
560522000288,ASHGROVE ELEMENTARY,121 NORTH 5TH STREET WEST,RIVERTON,WY,82501,3453,265.0,3078562626,6,Town,Non-MSA,1,Regular,1,Primary,KG,05
560522000290,JACKSON ELEMENTARY,121 NORTH 5TH STREET WEST,RIVERTON,WY,82501,3453,261.0,3078569495,6,Town,Non-MSA,1,Regular,1,Primary,KG,05
560522000291,JEFFERSON ELEMENTARY,121 NORTH 5TH STREET WEST,RIVERTON,WY,82501,3453,274.0,3078569255,6,Town,Non-MSA,1,Regular,1,Primary,KG,05
560522000292,LINCOLN ELEMENTARY,121 NORTH 5TH STREET WEST,RIVERTON,WY,82501,3453,272.0,3078562625,6,Town,Non-MSA,1,Regular,1,Primary,KG,05
560530200065,SUPERIOR ACADEMY,GOBEL STREET,ROCK SPRINGS,WY,82902,,30.0,3073523490,6,Town,Non-MSA,4,Voc/Tech/Other,2,Middle,07,09
560530200293,FARSON-EDEN HIGH SCHOOL,P.O. BOX A,FARSON,WY,82932,,40.0,3072739301,7,Rural,Non-MSA,1,Regular,3,High,09,12
560530200294,ROCK SPRINGS HIGH SCHOOL,P.O. BOX 1089,ROCK SPRINGS,WY,82902,6505,895.0,3073523440,6,Town,Non-MSA,1,Regular,3,High,10,12
560530200295,ROCK SPRINGS EAST JUNIOR HIGH,P.O. BOX 1089,ROCK SPRINGS,WY,82902,,527.0,3073523474,6,Town,Non-MSA,1,Regular,2,Middle,07,09
560530200296,WHITE MOUNTAIN JUNIOR HIGH,P.O. BOX 1089,ROCK SPRINGS,WY,82902,1089,505.0,3073523464,6,Town,Non-MSA,1,Regular,2,Middle,07,09
560530200297,DESERT ELEMENTARY,P.O. BOX 10,WAMSUTTER,WY,82336,10,42.0,3073247811,7,Rural,Non-MSA,1,Regular,1,Primary,KG,05
560530200298,DESERT VIEW ELEMENTARY,P.O. BOX 1089,ROCK SPRINGS,WY,82902,1089,231.0,3073523200,6,Town,Non-MSA,1,Regular,1,Primary,KG,06
560530200299,LINCOLN ELEMENTARY,P.O. BOX 1089,ROCK SPRINGS,WY,82902,6415,212.0,3073523210,6,Town,Non-MSA,1,Regular,1,Primary,KG,06
560530200300,LOWELL ELEMENTARY,P.O. BOX 1089,ROCK SPRINGS,WY,82902,5442,100.0,3073523215,N,Unknown,Non-MSA,1,Regular,4,Other,N,N
560530200301,OVERLAND ELEMENTARY,P.O. BOX 1089,ROCK SPRINGS,WY,82902,,277.0,3073523260,6,Town,Non-MSA,1,Regular,1,Primary,KG,06
560530200302,RELIANCE ELEMENTARY,P.O. BOX 1089,ROCK SPRINGS,WY,82901,1089,77.0,3073523220,7,Rural,Non-MSA,1,Regular,1,Primary,KG,06
560530200303,ROOSEVELT ELEMENTARY,P.O. BOX 1089,ROCK SPRINGS,WY,82902,1089,100.0,3073523232,N,Unknown,Non-MSA,1,Regular,4,Other,N,N
560530200304,SUPERIOR ELEMENTARY,P.O. BOX 1089,ROCK SPRINGS,WY,82902,,27.0,3073523280,6,Town,Non-MSA,1,Regular,1,Primary,KG,06
560530200305,WALNUT ELEMENTARY,P.O. BOX 1089,ROCK SPRINGS,WY,82902,7141,158.0,3073523225,6,Town,Non-MSA,1,Regular,1,Primary,KG,06
560530200306,WASHINGTON ELEMENTARY,P.O. BOX 1089,ROCK SPRINGS,WY,82902,5207,160.0,3073523242,6,Town,Non-MSA,1,Regular,1,Primary,KG,06
560530200307,YELLOWSTONE ELEMENTARY,P.O. BOX 1089,ROCK SPRINGS,WY,82902,,299.0,3073523270,6,Town,Non-MSA,1,Regular,1,Primary,KG,06
560530200359,ROCK SPRINGS ALTERNATIVE HIGH,P.O. BOX 1089,ROCK SPRINGS,WY,82902,1089,94.0,3073523290,6,Town,Non-MSA,4,Voc/Tech/Other,3,High,09,12
560530200421,NORTHPARK ELEMENTARY,P.O. BOX 1089,ROCK SPRINGS,WY,82902,,316.0,3073523235,6,Town,Non-MSA,1,Regular,1,Primary,KG,06
560530200422,WESTRIDGE ELEMENTARY,3501 DEWAR DRIVE,ROCK SPRINGS,WY,82901,,400.0,3073523250,6,Town,Non-MSA,1,Regular,1,Primary,KG,06
560530200489,FARSON-EDEN ELEMENTARY,P.O. BOX A,FARSON,WY,82932,,47.0,3072739301,7,Rural,Non-MSA,1,Regular,1,Primary,KG,05
560530200523,DESERT MIDDLE SCHOOL,P.O. BOX 10,WAMSUTTER,WY,82336,10,25.0,3073247811,7,Rural,Non-MSA,1,Regular,2,Middle,06,08
560530200524,FARSON-EDEN MIDDLE SCHOOL,P.O. BOX A,FARSON,WY,82932,,39.0,3072739301,7,Rural,Non-MSA,1,Regular,2,Middle,06,08
560568000308,ARVADA-CLEARMONT HIGH SCHOOL,P.O. BOX 125,CLEARMONT,WY,82835,125,45.0,3077584412,7,Rural,Non-MSA,1,Regular,3,High,09,12
560568000309,ARVADA ELEMENTARY,P.O. BOX 125,CLEARMONT,WY,82835,125,14.0,3077362219,7,Rural,Non-MSA,1,Regular,1,Primary,KG,06
560568000310,CLEARMONT ELEMENTARY,P.O. BOX 125,CLEARMONT,WY,82835,125,37.0,3077584412,7,Rural,Non-MSA,1,Regular,1,Primary,KG,06
560568000522,ARVADA-CLEARMONT JUNIOR HIGH,P.O. BOX 125,CLEARMONT,WY,82835,125,17.0,3077584412,7,Rural,Non-MSA,1,Regular,2,Middle,07,08
560569000311,BIG HORN HIGH SCHOOL,P.O. BOX 490,BIG HORN,WY,82833,490,149.0,3076748190,7,Rural,Non-MSA,1,Regular,3,High,09,12
560569000312,TONGUE RIVER HIGH SCHOOL,P.O. BOX 408,DAYTON,WY,82836,408,165.0,3076552236,7,Rural,Non-MSA,1,Regular,3,High,09,12
560569000314,TONGUE RIVER ELEMENTARY,P.O. BOX 849,RANCHESTER,WY,82839,849,171.0,3076552206,7,Rural,Non-MSA,1,Regular,1,Primary,KG,05
560569000395,BIG HORN ELEMENTARY,P.O. BOX 490,BIG HORN,WY,82833,490,153.0,3076723497,7,Rural,Non-MSA,1,Regular,1,Primary,KG,05
560569000446,BIG HORN MIDDLE SCHOOL,P.O. BOX 490,BIG HORN,WY,82833,490,105.0,3076748190,7,Rural,Non-MSA,1,Regular,2,Middle,06,08
560569000447,TONGUE RIVER MIDDLE SCHOOL,P.O. BOX 879,RANCHESTER,WY,82839,879,138.0,3076559533,7,Rural,Non-MSA,1,Regular,2,Middle,06,08
560569000472,SLACK ELEMENTARY,P.O. BOX 849,RANCHESTER,WY,82839,849,4.0,3076552206,7,Rural,Non-MSA,1,Regular,1,Primary,KG,04
560569500140,THE WRIGHT PLACE,BOX 919,SHERIDAN,WY,82801,,22.0,3076731386,7,Rural,Non-MSA,4,Voc/Tech/Other,2,Middle,06,08
560569500189,FORT MACKENZIE,BOX 919,SHERIDAN,WY,82801,,54.0,3076738730,7,Rural,Non-MSA,4,Voc/Tech/Other,3,High,09,12
560569500315,BECKTON ELEMENTARY,4 BECKTON DR.,SHERIDAN,WY,82801,9802,7.0,3076747747,7,Rural,Non-MSA,1,Regular,1,Primary,KG,03
560569500316,COFFEEN ELEMENTARY,1053 SOUTH SHERIDAN AVENUE,SHERIDAN,WY,82801,5248,229.0,3076749333,6,Town,Non-MSA,1,Regular,1,Primary,KG,05
560569500317,HIGHLAND PARK ELEMENTARY,1301 AVON,SHERIDAN,WY,82801,2719,363.0,3076722113,6,Town,Non-MSA,1,Regular,1,Primary,KG,05
560569500320,STORY ELEMENTARY,P.O. BOX 129,STORY,WY,82842,129,25.0,3076832316,7,Rural,Non-MSA,1,Regular,1,Primary,KG,05
560569500322,WOODLAND PARK ELEMENTARY,5135 COFFEEN AVENUE,SHERIDAN,WY,82801,9123,188.0,3076747937,7,Rural,Non-MSA,1,Regular,1,Primary,KG,05
560569500360,SHERIDAN HIGH SCHOOL,1056 LONG DRIVE,SHERIDAN,WY,82801,6701,803.0,3076722495,6,Town,Non-MSA,1,Regular,3,High,10,12
560569500361,CENTRAL MIDDLE SCHOOL,25 SOUTH CUSTER,SHERIDAN,WY,82801,4310,483.0,3076746545,6,Town,Non-MSA,1,Regular,2,Middle,06,07
560569500397,MEADOWLARK ELEMENTARY,1410 DESMET AVENUE,SHERIDAN,WY,82801,5517,241.0,3076723786,6,Town,Non-MSA,1,Regular,1,Primary,KG,05
560569500474,SAGEBRUSH ELEMENTARY,1685 HILLPOND DRIVE,SHERIDAN,WY,82801,2113,356.0,3076729059,6,Town,Non-MSA,1,Regular,1,Primary,KG,05
560569500490,SHERIDAN JUNIOR HIGH SCHOOL,620 ADAIR,SHERIDAN,WY,82801,3507,479.0,3076729745,6,Town,Non-MSA,1,Regular,4,Other,08,09
560570000323,SHOSHONI HIGH SCHOOL,P.O. BOX 327,SHOSHONI,WY,82649,327,127.0,3078762576,7,Rural,Non-MSA,1,Regular,3,High,09,12
560570000362,SHOSHONI ELEMENTARY,P.O. BOX 327,SHOSHONI,WY,82649,327,154.0,3078762563,7,Rural,Non-MSA,1,Regular,1,Primary,KG,06
560570000510,SHOSHONI JUNIOR HIGH SCHOOL,P.O. BOX 327,SHOSHONI,WY,82649,327,47.0,3078762576,7,Rural,Non-MSA,1,Regular,2,Middle,07,08
560576200164,EXPEDITION ACADEMY,280 MONROE AVE,GREEN RIVER,WY,82935,,43.0,3078724800,6,Town,Non-MSA,4,Voc/Tech/Other,3,High,09,12
560576200324,GREEN RIVER HIGH SCHOOL,1615 HITCHING POST,GREEN RIVER,WY,82935,5131,979.0,3078724747,6,Town,Non-MSA,1,Regular,3,High,09,12
560576200325,MONROE MIDDLE SCHOOL,250 MONROE,GREEN RIVER,WY,82935,5129,297.0,3078724000,6,Town,Non-MSA,1,Regular,2,Middle,06,08
560576200326,GRANGER ELEMENTARY,P.O. BOX 25,GRANGER,WY,82934,25,18.0,3078754840,7,Rural,Non-MSA,1,Regular,1,Primary,KG,05
560576200327,HARRISON ELEMENTARY,1825 ALABAMA DRIVE,GREEN RIVER,WY,82935,5805,302.0,3078721700,6,Town,Non-MSA,1,Regular,1,Primary,KG,05
560576200329,MCKINNON ELEMENTARY,P.O. BOX 1001,MCKINNON,WY,82938,1001,12.0,3078746199,7,Rural,Non-MSA,1,Regular,1,Primary,KG,05
560576200332,WASHINGTON ELEMENTARY,750 WEST 5TH NORTH,GREEN RIVER,WY,82935,4043,250.0,3078722000,6,Town,Non-MSA,1,Regular,1,Primary,KG,05
560576200399,LINCOLN MIDDLE SCHOOL,350 MONROE AVE,GREEN RIVER,WY,82935,4147,333.0,3078725670,6,Town,Non-MSA,1,Regular,2,Middle,06,08
560576200424,JACKSON ELEMENTARY,2200 EAST TETON BLVD.,GREEN RIVER,WY,82935,6038,252.0,3078721800,6,Town,Non-MSA,1,Regular,1,Primary,KG,05
560576200425,TRUMAN ELEMENTARY,1055 WEST TETON BLVD.,GREEN RIVER,WY,82935,5681,286.0,3078721900,6,Town,Non-MSA,1,Regular,1,Primary,KG,05
560576200528,THOMAN RANCH ELEMENTARY,"FONTENELLE RT, HWY 372",KEMMERER,WY,83010,,2.0,3078773426,6,Town,Non-MSA,1,Regular,1,Primary,KG,08
560582000400,TEN SLEEP HIGH SCHOOL,P.O. BOX 105,TEN SLEEP,WY,82442,105,45.0,3073662233,7,Rural,Non-MSA,1,Regular,3,High,09,12
560582000491,TEN SLEEP ELEMENTARY,P.O. BOX 105,TEN SLEEP,WY,82442,105,47.0,3073662233,7,Rural,Non-MSA,1,Regular,1,Primary,KG,06
560582000511,TEN SLEEP MIDDLE SCHOOL,P.O. BOX 105,TEN SLEEP,WY,82442,105,19.0,3073662233,7,Rural,Non-MSA,1,Regular,2,Middle,07,08
560583000013,KINDER CAMPUS,P.O. BOX 568,JACKSON,WY,83001,568,107.0,3077333232,6,Town,Non-MSA,1,Regular,1,Primary,KG,KG
560583000335,JACKSON HOLE HIGH SCHOOL,P.O. BOX 568,JACKSON,WY,83001,568,655.0,3077323706,7,Rural,Non-MSA,1,Regular,3,High,09,12
560583000336,JACKSON HOLE MIDDLE SCHOOL,P.O. BOX 568,JACKSON,WY,83001,568,542.0,3077334234,6,Town,Non-MSA,1,Regular,2,Middle,06,08
560583000337,ALTA ELEMENTARY,"ROUTE 1, PO  BOX 3480",DRIGGS,WY,83422,9603,50.0,3073532472,7,Rural,Non-MSA,1,Regular,1,Primary,KG,06
560583000338,RENDEZVOUS CAMPUS,P.O. BOX 568,JACKSON,WY,83001,568,538.0,3077335302,6,Town,Non-MSA,1,Regular,1,Primary,01,05
560583000339,KELLY ELEMENTARY,P.O. BOX 128,KELLY,WY,83011,128,46.0,3077332955,7,Rural,Non-MSA,1,Regular,1,Primary,KG,05
560583000340,MORAN ELEMENTARY,P.O. BOX 568,JACKSON,WY,83001,568,23.0,3075432438,7,Rural,Non-MSA,1,Regular,1,Primary,KG,06
560583000341,WILSON ELEMENTARY,P.O. BOX 729,WILSON,WY,83014,729,202.0,3077333077,7,Rural,Non-MSA,1,Regular,1,Primary,KG,05
560583000512,WESTERN WYOMING HIGH SCHOOL,P.O. BOX 568,JACKSON,WY,83001,568,46.0,3077339116,6,Town,Non-MSA,4,Voc/Tech/Other,3,High,09,12
560609000342,UPTON MIDDLE SCHOOL,P.O. BOX 470,UPTON,WY,82730,470,69.0,3074689331,7,Rural,Non-MSA,1,Regular,2,Middle,06,08
560609000363,UPTON ELEMENTARY,P.O. BOX 470,UPTON,WY,82730,470,91.0,3074689331,7,Rural,Non-MSA,1,Regular,1,Primary,KG,05
560609000401,UPTON HIGH SCHOOL,P.O. BOX 470,UPTON,WY,82730,470,105.0,3074682361,7,Rural,Non-MSA,1,Regular,3,High,09,12
560624000343,WORLAND HIGH SCHOOL,801 SOUTH 17TH STREET,WORLAND,WY,82401,,483.0,3073472412,6,Town,Non-MSA,1,Regular,3,High,09,12
560624000344,WORLAND MIDDLE SCHOOL,1200 CULBERTSON,WORLAND,WY,82401,3520,342.0,3073473233,6,Town,Non-MSA,1,Regular,2,Middle,06,08
560624000345,EAST SIDE ELEMENTARY,203 NORTH 15TH STREET,WORLAND,WY,82401,2840,190.0,3073474662,6,Town,Non-MSA,1,Regular,1,Primary,KG,05
560624000346,SOUTH SIDE ELEMENTARY,1229 HOWELL AVENUE,WORLAND,WY,82401,4029,209.0,3073473306,6,Town,Non-MSA,1,Regular,1,Primary,KG,05
560624000347,WEST SIDE ELEMENTARY,810 SOUTH 6TH,WORLAND,WY,82401,3915,182.0,3073474298,6,Town,Non-MSA,1,Regular,1,Primary,KG,05
568010000045,BIG HORN BASIN CHILDREN'S CENT,PO BOX 112,THERMOPOLIS,WY,82443,112,100.0,3078642171,6,Town,Non-MSA,2,Special Ed,4,Other,PK,12
568018000031,POWDER RIVER BASIN CHILDREN'S,410 N MILLER AVE,GILLETTE,WY,82716,2929,100.0,3076820231,6,Town,Non-MSA,4,Voc/Tech/Other,4,Other,PK,12
568025000048,C-BAR-V RANCH,PO BOX 240,WILSON,WY,83014,240,100.0,3077338212,7,Rural,Non-MSA,4,Voc/Tech/Other,3,High,08,12
568025000201,SUNRISE SCHOOL,465 LINCOLN STREET,LANDER,WY,82520,,100.0,3073323774,6,Town,Non-MSA,4,Voc/Tech/Other,4,Other,00,00
590000200003,ST. STEPHENS INDIAN SCHOOL,PO BOX 345,ST STEPHENS,WY,82524,345,203.0,3078564147,7,Rural,Non-MSA,1,Regular,4,Other,KG,12
